SL-14 R/B               
1 16496U 86006B   26095.17078949  .00001354  00000+0  14103-3 0  9997
2 16496  82.5263 234.8098 0076396 183.8267 176.2377 14.86864332153146
COSMOS 1743             
1 16719U 86034A   26095.26812708  .00056744  00000+0  67115-3 0  9999
2 16719  82.5317  45.8893 0005919 153.2401 206.9163 15.61038643184398
SL-14 R/B               
1 16792U 86046B   26095.27764705  .00000731  00000+0  81181-4 0  9992
2 16792  82.4818  55.0548 0024137 137.2603 223.0496 14.85619364130359
SL-14 R/B               
1 16882U 86055B   26095.26281095  .00000632  00000+0  69966-4 0  9994
2 16882  82.5169 101.6895 0017474 242.0406 128.7967 14.85668737123314
AJISAI (EGS)            
1 16908U 86061A   26095.30220205 -.00000086  00000+0  82815-4 0  9993
2 16908  50.0121  11.5146 0011369 355.5038  96.7484 12.44515678471319
SL-14 R/B               
1 17567U 87024B   26095.16670265  .00000707  00000+0  77604-4 0  9993
2 17567  82.5265  67.8715 0018478 168.1963 191.9691 14.86160379 92060
COSMOS 1833             
1 17589U 87027A   26095.19411531 -.00000317  00000+0 -14363-3 0  9993
2 17589  70.9164 270.3077 0022933 174.8600 185.2761 14.13043779 14060
SL-16 R/B               
1 17590U 87027B   26095.09086647  .00000247  00000+0  14626-3 0  9992
2 17590  71.0027 220.8572 0002864  75.5026 284.6416 14.17168875 19089
SL-14 R/B               
1 17912U 87038B   26094.97316036  .00000662  00000+0  73782-4 0  9996
2 17912  82.4978 272.0394 0020719  78.7626 281.5918 14.85395913 83139
COSMOS 1844             
1 17973U 87041A   26095.05958751  .00000310  00000+0  18588-3 0  9995
2 17973  70.9016 338.5572 0031559 339.1537  20.8296 14.14562532  7310
SL-14 R/B               
1 18153U 87055B   26095.14743500  .00000565  00000+0  62342-4 0  9995
2 18153  82.4994 324.0975 0019167 287.6102  72.3021 14.85656716 73864
COSMOS 1867             
1 18187U 87060A   26095.12834416 -.00000007  00000+0  35103-4 0  9990
2 18187  65.0101 232.6602 0014972 280.1510  79.7886 14.31507504 23720
SL-14 R/B               
1 18749U 88001B   26095.27934983  .00000652  00000+0  72456-4 0  9993
2 18749  82.5156 170.3598 0018938 146.6088 213.6327 14.85558452 45979
COSMOS 1933             
1 18958U 88020A   26095.08954153  .00006603  00000+0  32085-3 0  9991
2 18958  82.5146 224.7860 0005375 106.5515 253.6310 15.18261180 54238
SL-3 R/B                
1 19046U 88032B   26095.26167697  .00005991  00000+0  27691-3 0  9998
2 19046  97.5226  78.4304 0027111 138.3540 221.9766 15.20224089 56147
SL-16 R/B               
1 19120U 88039B   26095.19237792 -.00000063  00000+0 -70165-5 0  9997
2 19120  71.0174  12.5077 0023872 296.5078  63.3599 14.19620769962148
COSMOS 1953             
1 19210U 88050A   26095.13514953  .00008835  00000+0  31235-3 0  9997
2 19210  82.5055 131.6399 0011822  39.8494 320.3612 15.28962252 41827
