[{"OBJECT_NAME":"SL-14 R/B","OBJECT_ID":"1986-006B","EPOCH":"2026-04-05T04:05:56.211936","MEAN_MOTION":14.86864332,"ECCENTRICITY":0.00763969,"INCLINATION":82.5263,"RA_OF_ASC_NODE":234.8098,"ARG_OF_PERICENTER":183.8267,"MEAN_ANOMALY":176.2377,"EPHEMERIS_TYPE":0,"CLASSIFICATION_TYPE":"U","NORAD_CAT_ID":16496,"ELEMENT_SET_NO":999,"REV_AT_EPOCH":15314,"BSTAR":0.00014103423,"MEAN_MOTION_DOT":1.354e-5,"MEAN_MOTION_DDOT":0},{"OBJECT_NAME":"COSMOS 1743","OBJECT_ID":"1986-034A","EPOCH":"2026-04-05T06:26:06.179712","MEAN_MOTION":15.61038643,"ECCENTRICITY":0.00059197,"INCLINATION":82.5317,"RA_OF_ASC_NODE":45.8893,"ARG_OF_PERICENTER":153.2401,"MEAN_ANOMALY":206.9163,"EPHEMERIS_TYPE":0,"CLASSIFICATION_TYPE":"U","NORAD_CAT_ID":16719,"ELEMENT_SET_NO":999,"REV_AT_EPOCH":18439,"BSTAR":0.00067114782,"MEAN_MOTION_DOT":0.00056744,"MEAN_MOTION_DDOT":0},{"OBJECT_NAME":"SL-14 R/B","OBJECT_ID":"1986-046B","EPOCH":"2026-04-05T06:39:48.705120","MEAN_MOTION":14.85619364,"ECCENTRICITY":0.00241377,"INCLINATION":82.4818,"RA_OF_ASC_NODE":55.0548,"ARG_OF_PERICENTER":137.2603,"MEAN_ANOMALY":223.0496,"EPHEMERIS_TYPE":0,"CLASSIFICATION_TYPE":"U","NORAD_CAT_ID":16792,"ELEMENT_SET_NO":999,"REV_AT_EPOCH":13035,"BSTAR":8.1180679e-5,"MEAN_MOTION_DOT":7.31e-6,"MEAN_MOTION_DDOT":0},{"OBJECT_NAME":"SL-14 R/B","OBJECT_ID":"1986-055B","EPOCH":"2026-04-05T06:18:26.866080","MEAN_MOTION":14.85668737,"ECCENTRICITY":0.00174749,"INCLINATION":82.5169,"RA_OF_ASC_NODE":101.6895,"ARG_OF_PERICENTER":242.0406,"MEAN_ANOMALY":128.7967,"EPHEMERIS_TYPE":0,"CLASSIFICATION_TYPE":"U","NORAD_CAT_ID":16882,"ELEMENT_SET_NO":999,"REV_AT_EPOCH":12331,"BSTAR":6.9965992e-5,"MEAN_MOTION_DOT":6.32e-6,"MEAN_MOTION_DDOT":0},{"OBJECT_NAME":"AJISAI (EGS)","OBJECT_ID":"1986-061A","EPOCH":"2026-04-05T07:15:10.257120","MEAN_MOTION":12.44515678,"ECCENTRICITY":0.00113692,"INCLINATION":50.0121,"RA_OF_ASC_NODE":11.5146,"ARG_OF_PERICENTER":355.5038,"MEAN_ANOMALY":96.7484,"EPHEMERIS_TYPE":0,"CLASSIFICATION_TYPE":"U","NORAD_CAT_ID":16908,"ELEMENT_SET_NO":999,"REV_AT_EPOCH":47131,"BSTAR":8.281478e-5,"MEAN_MOTION_DOT":-8.6e-7,"MEAN_MOTION_DDOT":0},{"OBJECT_NAME":"SL-14 R/B","OBJECT_ID":"1987-024B","EPOCH":"2026-04-05T04:00:03.108960","MEAN_MOTION":14.86160379,"ECCENTRICITY":0.00184784,"INCLINATION":82.5265,"RA_OF_ASC_NODE":67.8715,"ARG_OF_PERICENTER":168.1963,"MEAN_ANOMALY":191.9691,"EPHEMERIS_TYPE":0,"CLASSIFICATION_TYPE":"U","NORAD_CAT_ID":17567,"ELEMENT_SET_NO":999,"REV_AT_EPOCH":9206,"BSTAR":7.7603974e-5,"MEAN_MOTION_DOT":7.07e-6,"MEAN_MOTION_DDOT":0},{"OBJECT_NAME":"COSMOS 1833","OBJECT_ID":"1987-027A","EPOCH":"2026-04-05T04:39:31.562784","MEAN_MOTION":14.13043779,"ECCENTRICITY":0.00229336,"INCLINATION":70.9164,"RA_OF_ASC_NODE":270.3077,"ARG_OF_PERICENTER":174.86,"MEAN_ANOMALY":185.2761,"EPHEMERIS_TYPE":0,"CLASSIFICATION_TYPE":"U","NORAD_CAT_ID":17589,"ELEMENT_SET_NO":999,"REV_AT_EPOCH":1406,"BSTAR":-0.00014363484,"MEAN_MOTION_DOT":-3.17e-6,"MEAN_MOTION_DDOT":0},{"OBJECT_NAME":"SL-16 R/B","OBJECT_ID":"1987-027B","EPOCH":"2026-04-05T02:10:50.863008","MEAN_MOTION":14.17168875,"ECCENTRICITY":0.00028648,"INCLINATION":71.0027,"RA_OF_ASC_NODE":220.8572,"ARG_OF_PERICENTER":75.5026,"MEAN_ANOMALY":284.6416,"EPHEMERIS_TYPE":0,"CLASSIFICATION_TYPE":"U","NORAD_CAT_ID":17590,"ELEMENT_SET_NO":999,"REV_AT_EPOCH":1908,"BSTAR":0.00014626481,"MEAN_MOTION_DOT":2.47e-6,"MEAN_MOTION_DDOT":0},{"OBJECT_NAME":"SL-14 R/B","OBJECT_ID":"1987-038B","EPOCH":"2026-04-04T23:21:21.055104","MEAN_MOTION":14.85395913,"ECCENTRICITY":0.00207197,"INCLINATION":82.4978,"RA_OF_ASC_NODE":272.0394,"ARG_OF_PERICENTER":78.7626,"MEAN_ANOMALY":281.5918,"EPHEMERIS_TYPE":0,"CLASSIFICATION_TYPE":"U","NORAD_CAT_ID":17912,"ELEMENT_SET_NO":999,"REV_AT_EPOCH":8313,"BSTAR":7.3781835e-5,"MEAN_MOTION_DOT":6.62e-6,"MEAN_MOTION_DDOT":0},{"OBJECT_NAME":"COSMOS 1844","OBJECT_ID":"1987-041A","EPOCH":"2026-04-05T01:25:48.360864","MEAN_MOTION":14.14562532,"ECCENTRICITY":0.0031559,"INCLINATION":70.9016,"RA_OF_ASC_NODE":338.5572,"ARG_OF_PERICENTER":339.1537,"MEAN_ANOMALY":20.8296,"EPHEMERIS_TYPE":0,"CLASSIFICATION_TYPE":"U","NORAD_CAT_ID":17973,"ELEMENT_SET_NO":999,"REV_AT_EPOCH":731,"BSTAR":0.00018587675,"MEAN_MOTION_DOT":3.1e-6,"MEAN_MOTION_DDOT":0},{"OBJECT_NAME":"SL-14 R/B","OBJECT_ID":"1987-055B","EPOCH":"2026-04-05T03:32:18.384000","MEAN_MOTION":14.85656716,"ECCENTRICITY":0.00191672,"INCLINATION":82.4994,"RA_OF_ASC_NODE":324.0975,"ARG_OF_PERICENTER":287.6102,"MEAN_ANOMALY":72.3021,"EPHEMERIS_TYPE":0,"CLASSIFICATION_TYPE":"U","NORAD_CAT_ID":18153,"ELEMENT_SET_NO":999,"REV_AT_EPOCH":7386,"BSTAR":6.2342266e-5,"MEAN_MOTION_DOT":5.65e-6,"MEAN_MOTION_DDOT":0},{"OBJECT_NAME":"COSMOS 1867","OBJECT_ID":"1987-060A","EPOCH":"2026-04-05T03:04:48.935424","MEAN_MOTION":14.31507504,"ECCENTRICITY":0.00149721,"INCLINATION":65.0101,"RA_OF_ASC_NODE":232.6602,"ARG_OF_PERICENTER":280.151,"MEAN_ANOMALY":79.7886,"EPHEMERIS_TYPE":0,"CLASSIFICATION_TYPE":"U","NORAD_CAT_ID":18187,"ELEMENT_SET_NO":999,"REV_AT_EPOCH":2372,"BSTAR":3.5102914e-5,"MEAN_MOTION_DOT":-7.0e-8,"MEAN_MOTION_DDOT":0},{"OBJECT_NAME":"SL-14 R/B","OBJECT_ID":"1988-001B","EPOCH":"2026-04-05T06:42:15.825312","MEAN_MOTION":14.85558452,"ECCENTRICITY":0.00189381,"INCLINATION":82.5156,"RA_OF_ASC_NODE":170.3598,"ARG_OF_PERICENTER":146.6088,"MEAN_ANOMALY":213.6327,"EPHEMERIS_TYPE":0,"CLASSIFICATION_TYPE":"U","NORAD_CAT_ID":18749,"ELEMENT_SET_NO":999,"REV_AT_EPOCH":4597,"BSTAR":7.2455729e-5,"MEAN_MOTION_DOT":6.52e-6,"MEAN_MOTION_DDOT":0},{"OBJECT_NAME":"COSMOS 1933","OBJECT_ID":"1988-020A","EPOCH":"2026-04-05T02:08:56.388192","MEAN_MOTION":15.1826118,"ECCENTRICITY":0.00053753,"INCLINATION":82.5146,"RA_OF_ASC_NODE":224.786,"ARG_OF_PERICENTER":106.5515,"MEAN_ANOMALY":253.631,"EPHEMERIS_TYPE":0,"CLASSIFICATION_TYPE":"U","NORAD_CAT_ID":18958,"ELEMENT_SET_NO":999,"REV_AT_EPOCH":5423,"BSTAR":0.00032085326,"MEAN_MOTION_DOT":6.603e-5,"MEAN_MOTION_DDOT":0},{"OBJECT_NAME":"SL-3 R/B","OBJECT_ID":"1988-032B","EPOCH":"2026-04-05T06:16:48.890208","MEAN_MOTION":15.20224089,"ECCENTRICITY":0.00271117,"INCLINATION":97.5226,"RA_OF_ASC_NODE":78.4304,"ARG_OF_PERICENTER":138.354,"MEAN_ANOMALY":221.9766,"EPHEMERIS_TYPE":0,"CLASSIFICATION_TYPE":"U","NORAD_CAT_ID":19046,"ELEMENT_SET_NO":999,"REV_AT_EPOCH":5614,"BSTAR":0.0002769089,"MEAN_MOTION_DOT":5.991e-5,"MEAN_MOTION_DDOT":0},{"OBJECT_NAME":"SL-16 R/B","OBJECT_ID":"1988-039B","EPOCH":"2026-04-05T04:37:01.452288","MEAN_MOTION":14.19620769,"ECCENTRICITY":0.0023872,"INCLINATION":71.0174,"RA_OF_ASC_NODE":12.5077,"ARG_OF_PERICENTER":296.5078,"MEAN_ANOMALY":63.3599,"EPHEMERIS_TYPE":0,"CLASSIFICATION_TYPE":"U","NORAD_CAT_ID":19120,"ELEMENT_SET_NO":999,"REV_AT_EPOCH":96214,"BSTAR":-7.016531e-6,"MEAN_MOTION_DOT":-6.3e-7,"MEAN_MOTION_DDOT":0},{"OBJECT_NAME":"COSMOS 1953","OBJECT_ID":"1988-050A","EPOCH":"2026-04-05T03:14:36.919392","MEAN_MOTION":15.28962252,"ECCENTRICITY":0.00118227,"INCLINATION":82.5055,"RA_OF_ASC_NODE":131.6399,"ARG_OF_PERICENTER":39.8494,"MEAN_ANOMALY":320.3612,"EPHEMERIS_TYPE":0,"CLASSIFICATION_TYPE":"U","NORAD_CAT_ID":19210,"ELEMENT_SET_NO":999,"REV_AT_EPOCH":4182,"BSTAR":0.00031235361,"MEAN_MOTION_DOT":8.835e-5,"MEAN_MOTION_DDOT":0}]
